<?xml version="1.0" encoding="UTF-8"?>
<gpx version="1.1" creator="nmeasim-rs" xmlns="http://www.topografix.com/GPX/1/1">
  <trk><name>Golfe Saint-Vincent</name><trkseg>
    <trkpt lat="-35.0000" lon="138.5000"><time>2026-09-28T10:00:00Z</time></trkpt>
    <trkpt lat="-34.9950" lon="138.4960"><time>2026-09-28T10:01:00Z</time></trkpt>
    <trkpt lat="-34.9900" lon="138.4940"><time>2026-09-28T10:02:00Z</time></trkpt>
    <trkpt lat="-34.9850" lon="138.4945"><time>2026-09-28T10:03:00Z</time></trkpt>
    <trkpt lat="-34.9800" lon="138.4970"><time>2026-09-28T10:04:00Z</time></trkpt>
    <trkpt lat="-34.9760" lon="138.5010"><time>2026-09-28T10:05:00Z</time></trkpt>
  </trkseg></trk>
</gpx>
